[{"OBJECT_NAME":"CSC-2","OBJECT_ID":"2023-155F","EPOCH":"2026-03-09T18:52:09.760512","MEAN_MOTION":15.19850023,"ECCENTRICITY":0.00046278,"INCLINATION":97.5491,"RA_OF_ASC_NODE":145.3107,"ARG_OF_PERICENTER":207.4869,"MEAN_ANOMALY":152.6121,"EPHEMERIS_TYPE":0,"CLASSIFICATION_TYPE":"U","NORAD_CAT_ID":58021,"ELEMENT_SET_NO":999,"REV_AT_EPOCH":13307,"BSTAR":0.00057636631,"MEAN_MOTION_DOT":0.00012305,"MEAN_MOTION_DDOT":0},{"OBJECT_NAME":"CZ-4 DEB","OBJECT_ID":"1990-081AM","EPOCH":"2026-03-09T17:46:45.223680","MEAN_MOTION":15.18516637,"ECCENTRICITY":0.00075172,"INCLINATION":98.1393,"RA_OF_ASC_NODE":114.284,"ARG_OF_PERICENTER":213.3287,"MEAN_ANOMALY":271.4543,"EPHEMERIS_TYPE":0,"CLASSIFICATION_TYPE":"U","NORAD_CAT_ID":20877,"ELEMENT_SET_NO":999,"REV_AT_EPOCH":85586,"BSTAR":0.0032141907,"MEAN_MOTION_DOT":0.00066859,"MEAN_MOTION_DDOT":0}]
